[{"OBJECT_NAME":"STARLINK-1964","OBJECT_ID":"2021-009T","EPOCH":"2026-03-09T21:31:58.383264","MEAN_MOTION":15.67134759,"ECCENTRICITY":0.00046841,"INCLINATION":53.045,"RA_OF_ASC_NODE":328.1813,"ARG_OF_PERICENTER":312.9393,"MEAN_ANOMALY":47.1229,"EPHEMERIS_TYPE":0,"CLASSIFICATION_TYPE":"U","NORAD_CAT_ID":47565,"ELEMENT_SET_NO":999,"REV_AT_EPOCH":28156,"BSTAR":0.00093079288,"MEAN_MOTION_DOT":0.00102212,"MEAN_MOTION_DDOT":0},{"OBJECT_NAME":"STARLINK-11273 [DTC]","OBJECT_ID":"2024-154L","EPOCH":"2026-03-09T13:12:03.659904","MEAN_MOTION":15.69701788,"ECCENTRICITY":0.0001103,"INCLINATION":53.1574,"RA_OF_ASC_NODE":131.8665,"ARG_OF_PERICENTER":89.7824,"MEAN_ANOMALY":270.3321,"EPHEMERIS_TYPE":0,"CLASSIFICATION_TYPE":"U","NORAD_CAT_ID":60913,"ELEMENT_SET_NO":999,"REV_AT_EPOCH":8848,"BSTAR":7.5887e-6,"MEAN_MOTION_DOT":3.31e-6,"MEAN_MOTION_DDOT":0}]
